{
  "norad_id": 65481,
  "name": "STARLINK-35042",
  "history": [
    {
      "epoch": "2026-03-28T12:30:56.690208",
      "apogee_km": 475.7731954666924,
      "perigee_km": 474.58208938183907,
      "latitude_deg": 26.871916099470244,
      "longitude_deg": 58.16298911999911,
      "semi_major_axis_km": 6853.314642424266,
      "eccentricity": 8.69e-05,
      "inclination_deg": 53.1584,
      "raan_deg": 170.9394,
      "arg_perigee_deg": 71.6609,
      "mean_anomaly_deg": 288.4486,
      "mean_motion_rev_day": 15.30212535
    }
  ]
}